{
  "type": "FeatureCollection",
  "features": [
    {
      "type": "Feature",
      "properties": {
        "norad_id": 43719,
        "name": "HYSIS",
        "group": "resource",
        "lat": 70.8284976158928,
        "lon": -114.67895168378446,
        "alt_km": 626.0302953449773,
        "timestamp": "2025-12-04T09:47:37.180411+00:00",
        "meta_object_name": "HYSIS",
        "meta_object_id": "2018-096A",
        "meta_epoch": "2025-12-03T23:33:53.273376",
        "meta_mean_motion": 14.78603565,
        "meta_eccentricity": 0.00016224,
        "meta_inclination": 98.0109,
        "meta_ra_of_asc_node": 41.0023,
        "meta_arg_of_pericenter": 67.6656,
        "meta_mean_anomaly": 292.4727,
        "meta_ephemeris_type": 0,
        "meta_classification_type": "U",
        "meta_norad_cat_id": 43719,
        "meta_element_set_no": 999,
        "meta_rev_at_epoch": 37857,
        "meta_bstar": 3.4560417e-05,
        "meta_mean_motion_dot": 2.01e-06,
        "meta_mean_motion_ddot": 0,
        "tle_line1": "1 43719U 18096A   25337.98186659  .00000201  00000+0  34560-4 0  9994",
        "tle_line2": "2 43719  98.0109  41.0023 0001622  67.6656 292.4727 14.78603565378578"
      },
      "geometry": {
        "type": "Point",
        "coordinates": [
          -114.67895168378446,
          70.8284976158928
        ]
      }
    },
    {
      "type": "Feature",
      "properties": {
        "norad_id": 43783,
        "name": "KAZSTSAT",
        "group": "resource",
        "lat": 80.40323035986732,
        "lon": -36.80656937351194,
        "alt_km": 561.0525079250538,
        "timestamp": "2025-12-04T09:47:37.180422+00:00",
        "meta_object_name": "KAZSTSAT",
        "meta_object_id": "2018-099AB",
        "meta_epoch": "2025-12-04T01:24:44.238240",
        "meta_mean_motion": 14.99307288,
        "meta_eccentricity": 0.000649,
        "meta_inclination": 97.4553,
        "meta_ra_of_asc_node": 13.6171,
        "meta_arg_of_pericenter": 2.5271,
        "meta_mean_anomaly": 357.5985,
        "meta_ephemeris_type": 0,
        "meta_classification_type": "U",
        "meta_norad_cat_id": 43783,
        "meta_element_set_no": 999,
        "meta_rev_at_epoch": 38206,
        "meta_bstar": 0.00027332,
        "meta_mean_motion_dot": 3.283e-05,
        "meta_mean_motion_ddot": 0,
        "tle_line1": "1 43783U 18099AB  25338.05884535  .00003283  00000+0  27332-3 0  9996",
        "tle_line2": "2 43783  97.4553  13.6171 0006490   2.5271 357.5985 14.99307288382067"
      },
      "geometry": {
        "type": "Point",
        "coordinates": [
          -36.80656937351194,
          80.40323035986732
        ]
      }
    },
    {
      "type": "Feature",
      "properties": {
        "norad_id": 43831,
        "name": "SAUDISAT 5A",
        "group": "resource",
        "lat": 69.23533961278893,
        "lon": 18.89424848656181,
        "alt_km": 475.67042508428403,
        "timestamp": "2025-12-04T09:47:37.180434+00:00",
        "meta_object_name": "SAUDISAT 5A",
        "meta_object_id": "2018-102A",
        "meta_epoch": "2025-12-04T04:45:47.152224",
        "meta_mean_motion": 15.25491305,
        "meta_eccentricity": 0.0011782,
        "meta_inclination": 97.3371,
        "meta_ra_of_asc_node": 38.5555,
        "meta_arg_of_pericenter": 102.4611,
        "meta_mean_anomaly": 257.7946,
        "meta_ephemeris_type": 0,
        "meta_classification_type": "U",
        "meta_norad_cat_id": 43831,
        "meta_element_set_no": 999,
        "meta_rev_at_epoch": 38592,
        "meta_bstar": 0.0005636,
        "meta_mean_motion_dot": 0.00014242,
        "meta_mean_motion_ddot": 0,
        "tle_line1": "1 43831U 18102A   25338.19846241  .00014242  00000+0  56360-3 0  9992",
        "tle_line2": "2 43831  97.3371  38.5555 0011782 102.4611 257.7946 15.25491305385928"
      },
      "geometry": {
        "type": "Point",
        "coordinates": [
          18.89424848656181,
          69.23533961278893
        ]
      }
    },
    {
      "type": "Feature",
      "properties": {
        "norad_id": 43833,
        "name": "SAUDISAT 5B",
        "group": "resource",
        "lat": 66.5704030263154,
        "lon": -121.1942894004014,
        "alt_km": 473.26236776166115,
        "timestamp": "2025-12-04T09:47:37.180445+00:00",
        "meta_object_name": "SAUDISAT 5B",
        "meta_object_id": "2018-102C",
        "meta_epoch": "2025-12-04T04:34:56.496288",
        "meta_mean_motion": 15.25848702,
        "meta_eccentricity": 0.0012494,
        "meta_inclination": 97.3466,
        "meta_ra_of_asc_node": 41.2713,
        "meta_arg_of_pericenter": 105.046,
        "meta_mean_anomaly": 255.2162,
        "meta_ephemeris_type": 0,
        "meta_classification_type": "U",
        "meta_norad_cat_id": 43833,
        "meta_element_set_no": 999,
        "meta_rev_at_epoch": 38603,
        "meta_bstar": 0.00054531,
        "meta_mean_motion_dot": 0.00013929,
        "meta_mean_motion_ddot": 0,
        "tle_line1": "1 43833U 18102C   25338.19093167  .00013929  00000+0  54531-3 0  9994",
        "tle_line2": "2 43833  97.3466  41.2713 0012494 105.0460 255.2162 15.25848702386037"
      },
      "geometry": {
        "type": "Point",
        "coordinates": [
          -121.1942894004014,
          66.5704030263154
        ]
      }
    },
    {
      "type": "Feature",
      "properties": {
        "norad_id": 44622,
        "name": "GAOFEN-10R",
        "group": "resource",
        "lat": -81.65113172336878,
        "lon": 31.832055223665613,
        "alt_km": 633.324456621317,
        "timestamp": "2025-12-04T09:47:37.180455+00:00",
        "meta_object_name": "GAOFEN-10R",
        "meta_object_id": "2019-066A",
        "meta_epoch": "2025-12-04T03:43:52.398912",
        "meta_mean_motion": 14.82744697,
        "meta_eccentricity": 0.0008241,
        "meta_inclination": 98.0264,
        "meta_ra_of_asc_node": 285.629,
        "meta_arg_of_pericenter": 65.4131,
        "meta_mean_anomaly": 294.794,
        "meta_ephemeris_type": 0,
        "meta_classification_type": "U",
        "meta_norad_cat_id": 44622,
        "meta_element_set_no": 999,
        "meta_rev_at_epoch": 33347,
        "meta_bstar": 0.00048347,
        "meta_mean_motion_dot": 3.853e-05,
        "meta_mean_motion_ddot": 0,
        "tle_line1": "1 44622U 19066A   25338.15546758  .00003853  00000+0  48347-3 0  9999",
        "tle_line2": "2 44622  98.0264 285.6290 0008241  65.4131 294.7940 14.82744697333473"
      },
      "geometry": {
        "type": "Point",
        "coordinates": [
          31.832055223665613,
          -81.65113172336878
        ]
      }
    },
    {
      "type": "Feature",
      "properties": {
        "norad_id": 44804,
        "name": "CARTOSAT-3",
        "group": "resource",
        "lat": 56.78822751361686,
        "lon": 26.55044810115571,
        "alt_km": 497.3094259290474,
        "timestamp": "2025-12-04T09:47:37.180465+00:00",
        "meta_object_name": "CARTOSAT-3",
        "meta_object_id": "2019-081A",
        "meta_epoch": "2025-12-04T04:47:56.862816",
        "meta_mean_motion": 15.19250098,
        "meta_eccentricity": 0.0013858,
        "meta_inclination": 97.4602,
        "meta_ra_of_asc_node": 37.891,
        "meta_arg_of_pericenter": 114.074,
        "meta_mean_anomaly": 246.1946,
        "meta_ephemeris_type": 0,
        "meta_classification_type": "U",
        "meta_norad_cat_id": 44804,
        "meta_element_set_no": 999,
        "meta_rev_at_epoch": 33386,
        "meta_bstar": 0.00031956,
        "meta_mean_motion_dot": 6.684e-05,
        "meta_mean_motion_ddot": 0,
        "tle_line1": "1 44804U 19081A   25338.19996369  .00006684  00000+0  31956-3 0  9992",
        "tle_line2": "2 44804  97.4602  37.8910 0013858 114.0740 246.1946 15.19250098333865"
      },
      "geometry": {
        "type": "Point",
        "coordinates": [
          26.55044810115571,
          56.78822751361686
        ]
      }
    },
    {
      "type": "Feature",
      "properties": {
        "norad_id": 44819,
        "name": "GAOFEN-12 01",
        "group": "resource",
        "lat": -57.61331594811804,
        "lon": 152.40623774781156,
        "alt_km": 633.8917585493182,
        "timestamp": "2025-12-04T09:47:37.180475+00:00",
        "meta_object_name": "GAOFEN-12 01",
        "meta_object_id": "2019-082A",
        "meta_epoch": "2025-12-04T03:51:15.471936",
        "meta_mean_motion": 14.80642018,
        "meta_eccentricity": 0.0001246,
        "meta_inclination": 97.8128,
        "meta_ra_of_asc_node": 344.6668,
        "meta_arg_of_pericenter": 293.2933,
        "meta_mean_anomaly": 66.8148,
        "meta_ephemeris_type": 0,
        "meta_classification_type": "U",
        "meta_norad_cat_id": 44819,
        "meta_element_set_no": 999,
        "meta_rev_at_epoch": 32523,
        "meta_bstar": 0.00013991,
        "meta_mean_motion_dot": 1.024e-05,
        "meta_mean_motion_ddot": 0,
        "tle_line1": "1 44819U 19082A   25338.16059574  .00001024  00000+0  13991-3 0  9996",
        "tle_line2": "2 44819  97.8128 344.6668 0001246 293.2933  66.8148 14.80642018325236"
      },
      "geometry": {
        "type": "Point",
        "coordinates": [
          152.40623774781156,
          -57.61331594811804
        ]
      }
    }
  ]
}